[
    {
        "Altitude(m)": 703151.1989334224,
        "Argument of Periapsis(deg)": 0.0034170363559881197,
        "Eccentricity": 0.0,
        "Inclination(deg)": 45.0,
        "Latitude(deg)": 2.401752860171059,
        "Longitude(deg)": -112.81962093944924,
        "Mean Anomaly(deg)": 3.459964994244242,
        "RAAN(deg)": 344.99677441756256,
        "Satellite Name": "Constellation 1 1518",
        "Satellite Number": 1518,
        "Semi-Major Axis(m)": 7083131.272910544,
        "Time(s)": 57
    },
    {
        "Altitude(m)": 703146.7586786114,
        "Argument of Periapsis(deg)": 0.003476984362233526,
        "Eccentricity": 0.0,
        "Inclination(deg)": 45.0,
        "Latitude(deg)": 2.4449332337346212,
        "Longitude(deg)": -112.78079212564845,
        "Mean Anomaly(deg)": 3.520666134494128,
        "RAAN(deg)": 344.996717828397,
        "Satellite Name": "Constellation 1 1518",
        "Satellite Number": 1518,
        "Semi-Major Axis(m)": 7083131.272910544,
        "Time(s)": 58
    },
    {
        "Altitude(m)": 703142.339291949,
        "Argument of Periapsis(deg)": 0.003536932368478932,
        "Eccentricity": 0.0,
        "Inclination(deg)": 45.0,
        "Latitude(deg)": 2.48811226173317,
        "Longitude(deg)": -112.74196067481127,
        "Mean Anomaly(deg)": 3.581367274744015,
        "RAAN(deg)": 344.99666123923146,
        "Satellite Name": "Constellation 1 1518",
        "Satellite Number": 1518,
        "Semi-Major Axis(m)": 7083131.272910544,
        "Time(s)": 59
    },
    {
        "Altitude(m)": 703137.9407744916,
        "Argument of Periapsis(deg)": 0.003596880374724337,
        "Eccentricity": 0.0,
        "Inclination(deg)": 45.0,
        "Latitude(deg)": 2.531289919063767,
        "Longitude(deg)": -112.70312620224757,
        "Mean Anomaly(deg)": 3.642068414993952,
        "RAAN(deg)": 344.9966046500658,
        "Satellite Name": "Constellation 1 1518",
        "Satellite Number": 1518,
        "Semi-Major Axis(m)": 7083131.272910544,
        "Time(s)": 60
    },
    {
        "Altitude(m)": 703133.5631272055,
        "Argument of Periapsis(deg)": 0.0036568283809697427,
        "Eccentricity": 0.0,
        "Inclination(deg)": 45.0,
        "Latitude(deg)": 2.5744661806183795,
        "Longitude(deg)": -112.6642888275517,
        "Mean Anomaly(deg)": 3.7027695552438384,
        "RAAN(deg)": 344.9965480609003,
        "Satellite Name": "Constellation 1 1518",
        "Satellite Number": 1518,
        "Semi-Major Axis(m)": 7083131.272910544,
        "Time(s)": 61
    },
    {
        "Altitude(m)": 703129.2063509532,
        "Argument of Periapsis(deg)": 0.003716776387215149,
        "Eccentricity": 0.0,
        "Inclination(deg)": 45.0,
        "Latitude(deg)": 2.617641021283164,
        "Longitude(deg)": -112.6254485022145,
        "Mean Anomaly(deg)": 3.7634706954937256,
        "RAAN(deg)": 344.9964914717347,
        "Satellite Name": "Constellation 1 1518",
        "Satellite Number": 1518,
        "Semi-Major Axis(m)": 7083131.272910544,
        "Time(s)": 62
    },
    {
        "Altitude(m)": 703124.8704465157,
        "Argument of Periapsis(deg)": 0.003776724393460554,
        "Eccentricity": 0.0,
        "Inclination(deg)": 45.0,
        "Latitude(deg)": 2.6608144159385523,
        "Longitude(deg)": -112.58660517771953,
        "Mean Anomaly(deg)": 3.824171835743612,
        "RAAN(deg)": 344.99643488256913,
        "Satellite Name": "Constellation 1 1518",
        "Satellite Number": 1518,
        "Semi-Major Axis(m)": 7083131.272910544,
        "Time(s)": 63
    },
    {
        "Altitude(m)": 703120.5554145742,
        "Argument of Periapsis(deg)": 0.003836672399705959,
        "Eccentricity": 0.0,
        "Inclination(deg)": 45.0,
        "Latitude(deg)": 2.703986339459131,
        "Longitude(deg)": -112.5477588055438,
        "Mean Anomaly(deg)": 3.884872975993549,
        "RAAN(deg)": 344.99637829340355,
        "Satellite Name": "Constellation 1 1518",
        "Satellite Number": 1518,
        "Semi-Major Axis(m)": 7083131.272910544,
        "Time(s)": 64
    },
    {
        "Altitude(m)": 703116.2612557174,
        "Argument of Periapsis(deg)": 0.003896620405951365,
        "Eccentricity": 0.0,
        "Inclination(deg)": 45.0,
        "Latitude(deg)": 2.7471567667135735,
        "Longitude(deg)": -112.5089093371572,
        "Mean Anomaly(deg)": 3.9455741162434355,
        "RAAN(deg)": 344.99632170423797,
        "Satellite Name": "Constellation 1 1518",
        "Satellite Number": 1518,
        "Semi-Major Axis(m)": 7083131.272910544,
        "Time(s)": 65
    },
    {
        "Altitude(m)": 703111.9879704389,
        "Argument of Periapsis(deg)": 0.003956568412196771,
        "Eccentricity": 0.0,
        "Inclination(deg)": 45.0,
        "Latitude(deg)": 2.7903256725645327,
        "Longitude(deg)": -112.47005672402247,
        "Mean Anomaly(deg)": 4.006275256493322,
        "RAAN(deg)": 344.99626511507245,
        "Satellite Name": "Constellation 1 1518",
        "Satellite Number": 1518,
        "Semi-Major Axis(m)": 7083131.272910544,
        "Time(s)": 66
    },
    {
        "Altitude(m)": 703107.7355591472,
        "Argument of Periapsis(deg)": 0.004016516418442176,
        "Eccentricity": 0.0,
        "Inclination(deg)": 45.0,
        "Latitude(deg)": 2.8334930318687093,
        "Longitude(deg)": -112.43120108569234,
        "Mean Anomaly(deg)": 4.066976396743259,
        "RAAN(deg)": 344.99620852590687,
        "Satellite Name": "Constellation 1 1518",
        "Satellite Number": 1518,
        "Semi-Major Axis(m)": 7083131.272910544,
        "Time(s)": 67
    },
    {
        "Altitude(m)": 703103.5040221424,
        "Argument of Periapsis(deg)": 0.004076464424687581,
        "Eccentricity": 0.0,
        "Inclination(deg)": 45.0,
        "Latitude(deg)": 2.8766588194761544,
        "Longitude(deg)": -112.39234203742059,
        "Mean Anomaly(deg)": 4.127677536993146,
        "RAAN(deg)": 344.9961519367413,
        "Satellite Name": "Constellation 1 1518",
        "Satellite Number": 1518,
        "Semi-Major Axis(m)": 7083131.272910544,
        "Time(s)": 68
    },
    {
        "Altitude(m)": 703099.2933596476,
        "Argument of Periapsis(deg)": 0.004136412430932987,
        "Eccentricity": 0.0,
        "Inclination(deg)": 45.0,
        "Latitude(deg)": 2.919823010231078,
        "Longitude(deg)": -112.35347969874522,
        "Mean Anomaly(deg)": 4.1883786772430325,
        "RAAN(deg)": 344.9960953475757,
        "Satellite Name": "Constellation 1 1518",
        "Satellite Number": 1518,
        "Semi-Major Axis(m)": 7083131.272910544,
        "Time(s)": 69
    },
    {
        "Altitude(m)": 703095.1035717812,
        "Argument of Periapsis(deg)": 0.004196360437178394,
        "Eccentricity": 0.0,
        "Inclination(deg)": 45.0,
        "Latitude(deg)": 2.9629855789711645,
        "Longitude(deg)": -112.31461402109935,
        "Mean Anomaly(deg)": 4.249079817492919,
        "RAAN(deg)": 344.9960387584101,
        "Satellite Name": "Constellation 1 1518",
        "Satellite Number": 1518,
        "Semi-Major Axis(m)": 7083131.272910544,
        "Time(s)": 70
    },
    {
        "Altitude(m)": 703090.9346585734,
        "Argument of Periapsis(deg)": 0.004256308443423799,
        "Eccentricity": 0.0,
        "Inclination(deg)": 45.0,
        "Latitude(deg)": 3.0061465005276222,
        "Longitude(deg)": -112.27574495590838,
        "Mean Anomaly(deg)": 4.3097809577428565,
        "RAAN(deg)": 344.9959821692446,
        "Satellite Name": "Constellation 1 1518",
        "Satellite Number": 1518,
        "Semi-Major Axis(m)": 7083131.272910544,
        "Time(s)": 71
    },
    {
        "Altitude(m)": 703086.7866199631,
        "Argument of Periapsis(deg)": 0.004316256449669204,
        "Eccentricity": 0.0,
        "Inclination(deg)": 45.0,
        "Latitude(deg)": 3.0493057497250966,
        "Longitude(deg)": -112.23687245459017,
        "Mean Anomaly(deg)": 4.370482097992743,
        "RAAN(deg)": 344.995925580079,
        "Satellite Name": "Constellation 1 1518",
        "Satellite Number": 1518,
        "Semi-Major Axis(m)": 7083131.272910544,
        "Time(s)": 72
    },
    {
        "Altitude(m)": 703082.659455789,
        "Argument of Periapsis(deg)": 0.00437620445591461,
        "Eccentricity": 0.0,
        "Inclination(deg)": 45.0,
        "Latitude(deg)": 3.0924633013815783,
        "Longitude(deg)": -112.19799646855452,
        "Mean Anomaly(deg)": 4.431183238242629,
        "RAAN(deg)": 344.99586899091344,
        "Satellite Name": "Constellation 1 1518",
        "Satellite Number": 1518,
        "Semi-Major Axis(m)": 7083131.272910544,
        "Time(s)": 73
    },
    {
        "Altitude(m)": 703078.5531658031,
        "Argument of Periapsis(deg)": 0.004436152462160016,
        "Eccentricity": 0.0,
        "Inclination(deg)": 45.0,
        "Latitude(deg)": 3.135619130308452,
        "Longitude(deg)": -112.15911711730027,
        "Mean Anomaly(deg)": 4.491884378492567,
        "RAAN(deg)": 344.99581240174786,
        "Satellite Name": "Constellation 1 1518",
        "Satellite Number": 1518,
        "Semi-Major Axis(m)": 7083131.272910544,
        "Time(s)": 74
    },
    {
        "Altitude(m)": 703074.4677496619,
        "Argument of Periapsis(deg)": 0.0044961004684054215,
        "Eccentricity": 0.0,
        "Inclination(deg)": 45.0,
        "Latitude(deg)": 3.178773211309823,
        "Longitude(deg)": -112.1202340160272,
        "Mean Anomaly(deg)": 4.552585518742453,
        "RAAN(deg)": 344.9957558125823,
        "Satellite Name": "Constellation 1 1518",
        "Satellite Number": 1518,
        "Semi-Major Axis(m)": 7083131.272910544,
        "Time(s)": 75
    }
]